INTELSAT 23 (IS-23)     
1 38867U 12057A   26173.80542720 -.00000282  00000+0  00000+0 0  9995
2 38867   0.0079 330.4914 0000089 323.5037 213.9242  1.00272658 50014
FM-6                    
1 39360U 13058A   26173.72157096  .00000000  00000+0  00000+0 0  9992
2 39360   0.0433  58.5940 0001956 117.9593 237.8047  1.00270652 46127
INTELSAT 30 (IS-30)     
1 40271U 14062A   26173.33519611 -.00000149  00000+0  00000+0 0  9998
2 40271   0.0240  51.2416 0001380 336.6530 268.2429  1.00270175  6843
DIRECTV 14              
1 40333U 14078B   26173.34002118 -.00000124  00000+0  00000+0 0  9997
2 40333   0.0158  38.8673 0000089 275.9251 338.8897  1.00270780 42098
DIRECTV 15              
1 40663U 15026A   26173.65297047 -.00000100  00000+0  00000+0 0  9992
2 40663   0.0140  54.0679 0000404 352.0797 356.8808  1.00273648 40517
SKY MEXICO-1            
1 40664U 15026B   26173.51514351 -.00000232  00000+0  00000+0 0  9994
2 40664   0.0139 300.7771 0002322 167.3840 269.1867  1.00271477 40505
INTELSAT 34 (IS-34)     
1 40874U 15039A   26173.44845562 -.00000284  00000+0  00000+0 0  9991
2 40874   0.0095 339.1215 0000761  16.8958  20.5645  1.00269300 39683
INTELSAT 31 (IS-31)     
1 41581U 16035A   26173.58322748 -.00000148  00000+0  00000+0 0  9994
2 41581   0.0236 260.1704 0000820  15.5303 109.9753  1.00270347 36736
INTELSAT 36 (IS-36)     
1 41747U 16053A   26173.23516881 -.00000023  00000+0  00000+0 0  9995
2 41747   0.0098 357.6893 0002440 342.8071  83.0934  1.00269608 36006
INTELSAT 32E (IS-32E)   
1 41945U 17007B   26172.93447622  .00000000  00000+0  00000+0 0  9991
2 41945   0.0211   3.6355 0000766 330.8020 228.9274  1.00272319 34271
INTELSAT 35E (IS-35E)   
1 42818U 17041A   26173.80906721 -.00000235  00000+0  00000+0 0  9997
2 42818   0.0190 330.6450 0002157 120.2799  76.8328  1.00272175 32870
INTELSAT 37E (IS-37E)   
1 42950U 17059A   26173.74106785 -.00000138  00000+0  00000+0 0  9990
2 42950   0.0004  70.8560 0002890  45.2826  43.5588  1.00270644 32123
AZERSPACE 2 (IS-38)     
1 43632U 18074A   26173.82484882  .00000000  00000+0  00000+0 0  9999
2 43632   0.0223   3.6107 0001597  88.0745 161.3720  1.00270485 28500
HORIZONS-3E             
1 43633U 18074B   26172.85130581 -.00000029  00000+0  00000+0 0  9998
2 43633   0.0194 176.7629 0000473  78.6152 130.1421  1.00278734 28381
AT&T T-16               
1 44333U 19034A   26173.65331714 -.00000112  00000+0  00000+0 0  9996
2 44333   0.0184  63.5408 0000536 240.0115 101.6148  1.00269154 25685
INTELSAT 39 (IS-39)     
1 44476U 19049B   26173.47169563  .00000035  00000+0  00000+0 0  9994
2 44476   0.0076 349.4901 0000934 354.6245 158.2934  1.00271710 25182
GALAXY 30 (G-30)        
1 46114U 20056C   26173.00698103  .00000037  00000+0  00000+0 0  9993
2 46114   0.0195  18.6690 0002324  70.4861  58.5611  1.00273596 21349
GALAXY 33 (G-33)        
1 54026U 22128A   26173.68795111  .00000081  00000+0  00000+0 0  9996
2 54026   0.0124 317.1140 0001686 137.3317 291.0794  1.00274179 13792
GALAXY 34 (G-34)        
1 54027U 22128B   26173.31324961  .00000000  00000+0  00000+0 0  9999
2 54027   0.0194 355.5557 0001772 109.0481 149.6614  1.00266943 13960
GALAXY 31 (G-31)        
1 54243U 22153A   26173.68239051  .00000016  00000+0  00000+0 0  9999
2 54243   0.0143 275.6335 0001283 170.6905 309.1887  1.00272726  7180
GALAXY 32 (G-32)        
1 54244U 22153B   26173.79781030 -.00000171  00000+0  00000+0 0  9994
2 54244   0.0086 343.6444 0002127  57.8179  65.7218  1.00271461 13209
GALAXY 35 (G-35)        
1 54741U 22170A   26173.79737696 -.00000159  00000+0  00000+0 0  9990
2 54741   0.0275  90.7491 0002028 357.0991  17.0706  1.00271899 12958
GALAXY 36 (G-36)        
1 54742U 22170B   26173.79833030 -.00000182  00000+0  00000+0 0  9996
2 54742   0.0279 131.0859 0002724 314.3710  23.9189  1.00271999 12837
GALAXY 37 (G-37)        
1 57493U 23112A   26173.68239051  .00000051  00000+0  00000+0 0  9994
2 57493   0.0188  15.3916 0002131  75.8638 298.2609  1.00272385 10595
