OBJECT_NAME,OBJECT_ID,EPOCH,MEAN_MOTION,ECCENTRICITY,INCLINATION,RA_OF_ASC_NODE,ARG_OF_PERICENTER,MEAN_ANOMALY,EPHEMERIS_TYPE,CLASSIFICATION_TYPE,NORAD_CAT_ID,ELEMENT_SET_NO,REV_AT_EPOCH,BSTAR,MEAN_MOTION_DOT,MEAN_MOTION_DDOT
INTELSAT 23 (IS-23),2012-057A,2026-06-22T19:19:48.910080,1.00272658,.00000895,0.0079,330.4914,323.5037,213.9242,0,U,38867,999,5001,0,-.282E-5,0
FM-6,2013-058A,2026-06-22T17:19:03.730944,1.00270652,.0001956,0.0433,58.5940,117.9593,237.8047,0,U,39360,999,4612,0,0,0
INTELSAT 30 (IS-30),2014-062A,2026-06-22T08:02:40.943904,1.00270175,.00013806,0.0240,51.2416,336.6530,268.2429,0,U,40271,999,684,0,-.149E-5,0
DIRECTV 14,2014-078B,2026-06-22T08:09:37.829952,1.00270780,.00000899,0.0158,38.8673,275.9251,338.8897,0,U,40333,999,4209,0,-.124E-5,0
DIRECTV 15,2015-026A,2026-06-22T15:40:16.648608,1.00273648,.00004041,0.0140,54.0679,352.0797,356.8808,0,U,40663,999,4051,0,-.1E-5,0
SKY MEXICO-1,2015-026B,2026-06-22T12:21:48.399264,1.00271477,.00023224,0.0139,300.7771,167.3840,269.1867,0,U,40664,999,4050,0,-.232E-5,0
INTELSAT 34 (IS-34),2015-039A,2026-06-22T10:45:46.565568,1.00269300,.00007618,0.0095,339.1215,16.8958,20.5645,0,U,40874,999,3968,0,-.284E-5,0
INTELSAT 31 (IS-31),2016-035A,2026-06-22T13:59:50.854272,1.00270347,.00008203,0.0236,260.1704,15.5303,109.9753,0,U,41581,999,3673,0,-.148E-5,0
INTELSAT 36 (IS-36),2016-053A,2026-06-22T05:38:38.585184,1.00269608,.000244,0.0098,357.6893,342.8071,83.0934,0,U,41747,999,3600,0,-.23E-6,0
INTELSAT 32E (IS-32E),2017-007B,2026-06-21T22:25:38.745408,1.00272319,.00007663,0.0211,3.6355,330.8020,228.9274,0,U,41945,999,3427,0,0,0
INTELSAT 35E (IS-35E),2017-041A,2026-06-22T19:25:03.406944,1.00272175,.00021576,0.0190,330.6450,120.2799,76.8328,0,U,42818,999,3287,0,-.235E-5,0
INTELSAT 37E (IS-37E),2017-059A,2026-06-22T17:47:08.262240,1.00270644,.00028906,0.0004,70.8560,45.2826,43.5588,0,U,42950,999,3212,0,-.138E-5,0
AZERSPACE 2 (IS-38),2018-074A,2026-06-22T19:47:46.938048,1.00270485,.00015975,0.0223,3.6107,88.0745,161.3720,0,U,43632,999,2850,0,0,0
HORIZONS-3E,2018-074B,2026-06-21T20:25:52.821984,1.00278734,.00004732,0.0194,176.7629,78.6152,130.1421,0,U,43633,999,2838,0,-.29E-6,0
AT&T T-16,2019-034A,2026-06-22T15:40:46.600896,1.00269154,.00005362,0.0184,63.5408,240.0115,101.6148,0,U,44333,999,2568,0,-.112E-5,0
INTELSAT 39 (IS-39),2019-049B,2026-06-22T11:19:14.502432,1.00271710,.00009348,0.0076,349.4901,354.6245,158.2934,0,U,44476,999,2518,0,.35E-6,0
GALAXY 30 (G-30),2020-056C,2026-06-22T00:10:03.160992,1.00273596,.00023248,0.0195,18.6690,70.4861,58.5611,0,U,46114,999,2134,0,.37E-6,0
GALAXY 33 (G-33),2022-128A,2026-06-22T16:30:38.975904,1.00274179,.00016868,0.0124,317.1140,137.3317,291.0794,0,U,54026,999,1379,0,.81E-6,0
GALAXY 34 (G-34),2022-128B,2026-06-22T07:31:04.766304,1.00266943,.00017725,0.0194,355.5557,109.0481,149.6614,0,U,54027,999,1396,0,0,0
GALAXY 31 (G-31),2022-153A,2026-06-22T16:22:38.540064,1.00272726,.00012834,0.0143,275.6335,170.6905,309.1887,0,U,54243,999,718,0,.16E-6,0
GALAXY 32 (G-32),2022-153B,2026-06-22T19:08:50.809920,1.00271461,.00021272,0.0086,343.6444,57.8179,65.7218,0,U,54244,999,1320,0,-.171E-5,0
GALAXY 35 (G-35),2022-170A,2026-06-22T19:08:13.369344,1.00271899,.00020289,0.0275,90.7491,357.0991,17.0706,0,U,54741,999,1295,0,-.159E-5,0
GALAXY 36 (G-36),2022-170B,2026-06-22T19:09:35.737920,1.00271999,.00027242,0.0279,131.0859,314.3710,23.9189,0,U,54742,999,1283,0,-.182E-5,0
GALAXY 37 (G-37),2023-112A,2026-06-22T16:22:38.540064,1.00272385,.00021312,0.0188,15.3916,75.8638,298.2609,0,U,57493,999,1059,0,.51E-6,0
